IRIDIUM 112             
1 41925U 17003J   23336.49131865  .00001002  00000+0  35061-3 0  9996
2 41925  86.3950 116.0388 0001808  93.3147 266.8256 14.34220653360302
IRIDIUM 111             
1 41926U 17003K   23336.47863056  .00000971  00000+0  33954-3 0  9992
2 41926  86.3953 116.0945 0002133 102.6419 257.5015 14.34215012360283
IRIDIUM 113             
1 42803U 17039A   23336.59813851  .00000688  00000+0  23850-3 0  9996
2 42803  86.3975 349.7973 0001956  96.0503 264.0915 14.34214352338238
IRIDIUM 123             
1 42804U 17039B   23336.56984956  .00000563  00000+0  19407-3 0  9994
2 42804  86.3989  21.2987 0002055  97.6775 262.4654 14.34216668336995
IRIDIUM 120             
1 42805U 17039C   23336.59178985  .00000334  00000+0  11204-3 0  9998
2 42805  86.3961 349.7024 0002155  94.8898 265.2544 14.34212128338226
IRIDIUM 115             
1 42806U 17039D   23336.54117949  .00000801  00000+0  23199-3 0  9992
2 42806  86.4500 349.7190 0002181 103.0845 257.0599 14.43302449340469
IRIDIUM 118             
1 42807U 17039E   23336.53179018  .00000542  00000+0  18654-3 0  9999
2 42807  86.3988  21.3166 0002078  92.8411 267.3023 14.34219449336989
IRIDIUM 117             
1 42808U 17039F   23336.55082096  .00000511  00000+0  17541-3 0  9991
2 42808  86.3988  21.2750 0002154  96.0115 264.1326 14.34215897337019
